STARLINK-4551           
1 53575U 22101BA  26068.19624395 -.00000282  00000+0  40156-6 0  9996
2 53575  53.2187  56.1278 0001457  95.4455 264.6704 15.08832018197069
PRSC-S1                 
1 65055U 25164A   26068.60758212  .00007316  00000+0  46631-3 0  9991
2 65055  41.1290 129.3637 0004466 348.3012  11.7698 15.08919510 33403
